ALOS-2                  
1 39766U 14029A   26143.25026333  .00000162  00000+0  28535-4 0  9992
2 39766  97.9222 240.7711 0001607  91.5770 268.5626 14.79464014647898
YAOGAN-29               
1 41038U 15069A   26143.55177740  .00000123  00000+0  21738-4 0  9999
2 41038  98.0041 172.1450 0002941  94.6240 265.5309 14.83060417566978
ASTRO-H (HITOMI)        
1 41337U 16012A   26143.25318949  .00001740  00000+0  97667-4 0  9995
2 41337  30.9988 235.2079 0009566   2.1513 357.9165 15.10395468563511
HXMT (HUIYAN)           
1 42758U 17034A   26143.53122138  .00003414  00000+0  17336-3 0  9996
2 42758  43.0149 320.3097 0031891 346.3297  13.6685 15.18219984493912
SAOCOM 1A               
1 43641U 18076A   26143.49473852  .00000481  00000+0  67039-4 0  9999
2 43641  97.8891 330.6018 0001574  84.0345 276.1048 14.82154260412440
H-2A R/B                
1 43682U 18084L   26143.38210263  .00016052  00000+0  34926-3 0  9995
2 43682  98.8611  16.8703 0024791 122.2405 238.1246 15.44102367417294
SAOCOM 1B               
1 46265U 20059A   26143.52596823 -.00000162  00000+0 -13829-4 0  9992
2 46265  97.8892 329.7265 0001437  84.8786 275.2591 14.82146794309838
CSS (TIANHE)            
1 48274U 21035A   26143.26969174  .00014569  00000+0  18018-3 0  9991
2 48274  41.4680 113.5197 0011094 265.7076  94.2495 15.59745917289279
COSMOS 2550             
1 48865U 21056A   26143.44005124  .00003652  00000+0  11630-3 0  9990
2 48865  67.1419 174.7603 0008453 265.1179  94.9010 15.33960534274926
CZ-2C R/B               
1 54039U 22132E   26143.48673465  .00041872  00000+0  36789-3 0  9997
2 54039  97.2919 149.4634 0016455 160.7291 199.4596 15.68522481202074
GSLV R/B                
1 54149U 22138AN  26143.52182005  .00001701  00000+0  14440-3 0  9992
2 54149  87.3793 141.2687 0019045 235.3713 124.5723 14.97130152195129
