CCSDS_OMM_VERS = 2.0
CREATION_DATE  = 
ORIGINATOR     = 

OBJECT_NAME    = ALOS-2
OBJECT_ID      = 2014-029A
CENTER_NAME    = EARTH
REF_FRAME      = TEME
TIME_SYSTEM    = UTC
MEAN_ELEMENT_THEORY = SGP/SGP4

EPOCH          = 2026-05-23T06:00:22.750848
MEAN_MOTION    = 14.79464014
ECCENTRICITY   = .0001608
INCLINATION    = 97.9222
RA_OF_ASC_NODE = 240.7711
ARG_OF_PERICENTER = 91.5770
MEAN_ANOMALY   = 268.5626

EPHEMERIS_TYPE = 0
CLASSIFICATION_TYPE = U
NORAD_CAT_ID   = 39766
ELEMENT_SET_NO = 999
REV_AT_EPOCH   = 64789
BSTAR          = .28535E-4
MEAN_MOTION_DOT = .162E-5
MEAN_MOTION_DDOT = 0

CCSDS_OMM_VERS = 2.0
CREATION_DATE  = 
ORIGINATOR     = 

OBJECT_NAME    = YAOGAN-29
OBJECT_ID      = 2015-069A
CENTER_NAME    = EARTH
REF_FRAME      = TEME
TIME_SYSTEM    = UTC
MEAN_ELEMENT_THEORY = SGP/SGP4

EPOCH          = 2026-05-23T13:14:33.567360
MEAN_MOTION    = 14.83060417
ECCENTRICITY   = .0002941
INCLINATION    = 98.0041
RA_OF_ASC_NODE = 172.1450
ARG_OF_PERICENTER = 94.6240
MEAN_ANOMALY   = 265.5309

EPHEMERIS_TYPE = 0
CLASSIFICATION_TYPE = U
NORAD_CAT_ID   = 41038
ELEMENT_SET_NO = 999
REV_AT_EPOCH   = 56697
BSTAR          = .21738E-4
MEAN_MOTION_DOT = .123E-5
MEAN_MOTION_DDOT = 0

CCSDS_OMM_VERS = 2.0
CREATION_DATE  = 
ORIGINATOR     = 

OBJECT_NAME    = ASTRO-H (HITOMI)
OBJECT_ID      = 2016-012A
CENTER_NAME    = EARTH
REF_FRAME      = TEME
TIME_SYSTEM    = UTC
MEAN_ELEMENT_THEORY = SGP/SGP4

EPOCH          = 2026-05-23T06:04:35.571072
MEAN_MOTION    = 15.10395468
ECCENTRICITY   = .0009566
INCLINATION    = 30.9988
RA_OF_ASC_NODE = 235.2079
ARG_OF_PERICENTER = 2.1513
MEAN_ANOMALY   = 357.9165

EPHEMERIS_TYPE = 0
CLASSIFICATION_TYPE = U
NORAD_CAT_ID   = 41337
ELEMENT_SET_NO = 999
REV_AT_EPOCH   = 56351
BSTAR          = .97667E-4
MEAN_MOTION_DOT = .174E-4
MEAN_MOTION_DDOT = 0

CCSDS_OMM_VERS = 2.0
CREATION_DATE  = 
ORIGINATOR     = 

OBJECT_NAME    = HXMT (HUIYAN)
OBJECT_ID      = 2017-034A
CENTER_NAME    = EARTH
REF_FRAME      = TEME
TIME_SYSTEM    = UTC
MEAN_ELEMENT_THEORY = SGP/SGP4

EPOCH          = 2026-05-23T12:44:57.527232
MEAN_MOTION    = 15.18219984
ECCENTRICITY   = .0031891
INCLINATION    = 43.0149
RA_OF_ASC_NODE = 320.3097
ARG_OF_PERICENTER = 346.3297
MEAN_ANOMALY   = 13.6685

EPHEMERIS_TYPE = 0
CLASSIFICATION_TYPE = U
NORAD_CAT_ID   = 42758
ELEMENT_SET_NO = 999
REV_AT_EPOCH   = 49391
BSTAR          = .17336E-3
MEAN_MOTION_DOT = .3414E-4
MEAN_MOTION_DDOT = 0

CCSDS_OMM_VERS = 2.0
CREATION_DATE  = 
ORIGINATOR     = 

OBJECT_NAME    = SAOCOM 1A
OBJECT_ID      = 2018-076A
CENTER_NAME    = EARTH
REF_FRAME      = TEME
TIME_SYSTEM    = UTC
MEAN_ELEMENT_THEORY = SGP/SGP4

EPOCH          = 2026-05-23T11:52:25.408128
MEAN_MOTION    = 14.82154260
ECCENTRICITY   = .0001574
INCLINATION    = 97.8891
RA_OF_ASC_NODE = 330.6018
ARG_OF_PERICENTER = 84.0345
MEAN_ANOMALY   = 276.1048

EPHEMERIS_TYPE = 0
CLASSIFICATION_TYPE = U
NORAD_CAT_ID   = 43641
ELEMENT_SET_NO = 999
REV_AT_EPOCH   = 41244
BSTAR          = .67039E-4
MEAN_MOTION_DOT = .481E-5
MEAN_MOTION_DDOT = 0

CCSDS_OMM_VERS = 2.0
CREATION_DATE  = 
ORIGINATOR     = 

OBJECT_NAME    = H-2A R/B
OBJECT_ID      = 2018-084L
CENTER_NAME    = EARTH
REF_FRAME      = TEME
TIME_SYSTEM    = UTC
MEAN_ELEMENT_THEORY = SGP/SGP4

EPOCH          = 2026-05-23T09:10:13.667232
MEAN_MOTION    = 15.44102367
ECCENTRICITY   = .0024791
INCLINATION    = 98.8611
RA_OF_ASC_NODE = 16.8703
ARG_OF_PERICENTER = 122.2405
MEAN_ANOMALY   = 238.1246

EPHEMERIS_TYPE = 0
CLASSIFICATION_TYPE = U
NORAD_CAT_ID   = 43682
ELEMENT_SET_NO = 999
REV_AT_EPOCH   = 41729
BSTAR          = .34926E-3
MEAN_MOTION_DOT = .16052E-3
MEAN_MOTION_DDOT = 0

CCSDS_OMM_VERS = 2.0
CREATION_DATE  = 
ORIGINATOR     = 

OBJECT_NAME    = SAOCOM 1B
OBJECT_ID      = 2020-059A
CENTER_NAME    = EARTH
REF_FRAME      = TEME
TIME_SYSTEM    = UTC
MEAN_ELEMENT_THEORY = SGP/SGP4

EPOCH          = 2026-05-23T12:37:23.655072
MEAN_MOTION    = 14.82146794
ECCENTRICITY   = .0001437
INCLINATION    = 97.8892
RA_OF_ASC_NODE = 329.7265
ARG_OF_PERICENTER = 84.8786
MEAN_ANOMALY   = 275.2591

EPHEMERIS_TYPE = 0
CLASSIFICATION_TYPE = U
NORAD_CAT_ID   = 46265
ELEMENT_SET_NO = 999
REV_AT_EPOCH   = 30983
BSTAR          = -.13829E-4
MEAN_MOTION_DOT = -.162E-5
MEAN_MOTION_DDOT = 0

CCSDS_OMM_VERS = 2.0
CREATION_DATE  = 
ORIGINATOR     = 

OBJECT_NAME    = CSS (TIANHE)
OBJECT_ID      = 2021-035A
CENTER_NAME    = EARTH
REF_FRAME      = TEME
TIME_SYSTEM    = UTC
MEAN_ELEMENT_THEORY = SGP/SGP4

EPOCH          = 2026-05-23T06:28:21.366336
MEAN_MOTION    = 15.59745917
ECCENTRICITY   = .0011094
INCLINATION    = 41.4680
RA_OF_ASC_NODE = 113.5197
ARG_OF_PERICENTER = 265.7076
MEAN_ANOMALY   = 94.2495

EPHEMERIS_TYPE = 0
CLASSIFICATION_TYPE = U
NORAD_CAT_ID   = 48274
ELEMENT_SET_NO = 999
REV_AT_EPOCH   = 28927
BSTAR          = .18018E-3
MEAN_MOTION_DOT = .14569E-3
MEAN_MOTION_DDOT = 0

CCSDS_OMM_VERS = 2.0
CREATION_DATE  = 
ORIGINATOR     = 

OBJECT_NAME    = COSMOS 2550
OBJECT_ID      = 2021-056A
CENTER_NAME    = EARTH
REF_FRAME      = TEME
TIME_SYSTEM    = UTC
MEAN_ELEMENT_THEORY = SGP/SGP4

EPOCH          = 2026-05-23T10:33:40.427136
MEAN_MOTION    = 15.33960534
ECCENTRICITY   = .0008453
INCLINATION    = 67.1419
RA_OF_ASC_NODE = 174.7603
ARG_OF_PERICENTER = 265.1179
MEAN_ANOMALY   = 94.9010

EPHEMERIS_TYPE = 0
CLASSIFICATION_TYPE = U
NORAD_CAT_ID   = 48865
ELEMENT_SET_NO = 999
REV_AT_EPOCH   = 27492
BSTAR          = .1163E-3
MEAN_MOTION_DOT = .3652E-4
MEAN_MOTION_DDOT = 0

CCSDS_OMM_VERS = 2.0
CREATION_DATE  = 
ORIGINATOR     = 

OBJECT_NAME    = CZ-2C R/B
OBJECT_ID      = 2022-132E
CENTER_NAME    = EARTH
REF_FRAME      = TEME
TIME_SYSTEM    = UTC
MEAN_ELEMENT_THEORY = SGP/SGP4

EPOCH          = 2026-05-23T11:40:53.873760
MEAN_MOTION    = 15.68522481
ECCENTRICITY   = .0016455
INCLINATION    = 97.2919
RA_OF_ASC_NODE = 149.4634
ARG_OF_PERICENTER = 160.7291
MEAN_ANOMALY   = 199.4596

EPHEMERIS_TYPE = 0
CLASSIFICATION_TYPE = U
NORAD_CAT_ID   = 54039
ELEMENT_SET_NO = 999
REV_AT_EPOCH   = 20207
BSTAR          = .36789E-3
MEAN_MOTION_DOT = .41872E-3
MEAN_MOTION_DDOT = 0

CCSDS_OMM_VERS = 2.0
CREATION_DATE  = 
ORIGINATOR     = 

OBJECT_NAME    = GSLV R/B
OBJECT_ID      = 2022-138AN
CENTER_NAME    = EARTH
REF_FRAME      = TEME
TIME_SYSTEM    = UTC
MEAN_ELEMENT_THEORY = SGP/SGP4

EPOCH          = 2026-05-23T12:31:25.252320
MEAN_MOTION    = 14.97130152
ECCENTRICITY   = .0019045
INCLINATION    = 87.3793
RA_OF_ASC_NODE = 141.2687
ARG_OF_PERICENTER = 235.3713
MEAN_ANOMALY   = 124.5723

EPHEMERIS_TYPE = 0
CLASSIFICATION_TYPE = U
NORAD_CAT_ID   = 54149
ELEMENT_SET_NO = 999
REV_AT_EPOCH   = 19512
BSTAR          = .1444E-3
MEAN_MOTION_DOT = .1701E-4
MEAN_MOTION_DDOT = 0

